GAOFEN-1                
1 39150U 13018A   26195.98331631  .00000400  00000+0  64605-4 0  9996
2 39150  97.9093 267.4844 0017021 171.7452 188.4042 14.76519155712348
FENGYUN 4A              
1 41882U 16077A   26195.79745084 -.00000367  00000+0  00000+0 0  9996
2 41882   2.3898  79.9598 0008506 159.5927 103.9340  1.00268349 35202
FORMOSAT-5              
1 42920U 17049A   26195.91397308  .00000037  00000+0  20533-4 0  9997
2 42920  98.2246 270.6067 0011363   4.7028 355.4272 14.50907751470696
FENGYUN 3D              
1 43010U 17072A   26195.91437206  .00000095  00000+0  66832-4 0  9992
2 43010  99.0137 170.8401 0001526  14.5399 345.5820 14.19744763448925
GAOFEN-1 02             
1 43259U 18031A   26195.94903547  .00000635  00000+0  98580-4 0  9997
2 43259  98.0521 258.3962 0001509 289.0035  71.1011 14.76472630446798
GAOFEN-1 03             
1 43260U 18031B   26195.99490287  .00000347  00000+0  57342-4 0  9997
2 43260  98.0503 258.2975 0002427  16.2755 343.8532 14.76462386446796
FENGYUN 3E              
1 49008U 21062A   26195.96564414 -.00000193  00000+0 -70119-4 0  9990
2 49008  98.7495 199.0642 0002257  39.6218 320.5123 14.19906111260525
FENGYUN 3G              
1 56232U 23055A   26195.89830602  .00014815  00000+0  23297-3 0  9996
2 56232  49.9902 203.1070 0007055  54.5051 305.6573 15.53778159184310
FENGYUN 3F              
1 57490U 23111A   26195.87842780  .00000006  00000+0  23112-4 0  9998
2 57490  98.6825 265.3696 0001285  76.2700 283.8619 14.19943340152799
FENGYUN 3H              
1 65815U 25219A   26195.80470204  .00000007  00000+0  23672-4 0  9992
2 65815  98.6771 136.0376 0001158  62.6327 297.4968 14.19924781 41301
